ORBCOMM FM103           
1 40091U 14040F   24310.48787659  .00003164  00000+0  72802-3 0  9992
2 40091  47.0061 353.6836 0002676 316.4009  43.6665 14.57374196531468
ORBCOMM FM119           
1 41180U 15081B   24310.56240678  .00003185  00000+0  73271-3 0  9996
2 41180  46.9977 171.7492 0000954 136.8667 223.2293 14.57355507473092
ORBCOMM FM105           
1 41181U 15081C   24310.54645814  .00001551  00000+0  48716-3 0  9997
2 41181  46.9990 155.3173 0001298  24.9839 335.1104 14.44805597468400
ORBCOMM FM110           
1 41182U 15081D   24310.56236105  .00004916  00000+0  11098-2 0  9999
2 41182  47.0008 261.9067 0001304 216.5144 143.5653 14.57396792471719
ORBCOMM FM118           
1 41183U 15081E   24310.26616252  .00005478  00000+0  12331-2 0  9997
2 41183  47.0032 263.6541 0001697 212.3313 147.7468 14.57364845471770
ORBCOMM FM112           
1 41184U 15081F   24310.60850829  .00003357  00000+0  76992-3 0  9994
2 41184  46.9963 170.7253 0001159 103.3025 256.7989 14.57376909473047
